{"spkid": "50662661", "covariance": {"elements": [{"units": null, "title": "eccentricity", "value": ".7342142147736375", "name": "e", "sigma": 7.27013150022371e-08, "label": "e"}, {"units": "au", "value": ".7834480645675599", "title": "perihelion distance", "name": "q", "sigma": 1.83315490978079e-07, "label": "q"}, {"label": "tp", "units": "TDB", "title": "time of perihelion passage", "value": "2458617.343923971345", "sigma": 0.000120935573365161, "name": "tp"}, {"label": "node", "sigma": 1.10146050754668e-05, "name": "om", "units": "deg", "title": "longitude of the ascending node", "value": "169.4337360114459"}, {"value": "65.58417652791383", "title": "argument of perihelion", "units": "deg", "sigma": 3.03732047894466e-05, "name": "w", "label": "peri"}, {"units": "deg", "value": "12.36065622193717", "title": "inclination", "sigma": 2.10280664913855e-05, "name": "i", "label": "i"}], "data": [["5.28548120305451E-15", "-1.332325032858747E-14", "8.707366476713475E-12", "-5.344180870535178E-16", "2.00832162216432E-12", "5.166382695578742E-14"], ["-1.332325032858747E-14", "3.360456923253415E-14", "-2.187476841701682E-11", "-6.810150799120907E-15", "-5.054768244527632E-12", "-1.078871008483493E-13"], ["8.707366476713475E-12", "-2.187476841701682E-11", "1.462541290516014E-8", "-5.705684750767461E-11", "3.370585032193569E-9", "2.302491968457424E-10"], ["-5.344180870535178E-16", "-6.810150799120907E-15", "-5.705684750767461E-11", "1.213215249684984E-10", "-1.375557551533684E-10", "-1.410843588823965E-10"], ["2.00832162216432E-12", "-5.054768244527632E-12", "3.370585032193569E-9", "-1.375557551533684E-10", "9.225315691816609E-10", "2.100605224754956E-10"], ["5.166382695578742E-14", "-1.078871008483493E-13", "2.302491968457424E-10", "-1.410843588823965E-10", "2.100605224754956E-10", "4.421795803661296E-10"]], "labels": ["e", "q", "tp", "node", "peri", "i"], "epoch": "2457960.5"}, "elements": [{"units": null, "value": ".7338155237341755", "title": "eccentricity", "name": "e", "sigma": "7.2018E-8", "label": "e"}, {"sigma": "1.2012E-7", "name": "a", "units": "au", "value": "2.946650293180167", "title": "semi-major axis", "label": "a"}, {"sigma": "1.806E-7", "name": "q", "value": ".7843525650287011", "title": "perihelion distance", "units": "au", "label": "q"}, {"name": "i", "sigma": "2.1026E-5", "value": "12.35759044183399", "title": "inclination; angle with respect to x-y ecliptic plane", "units": "deg", "label": "i"}, {"label": "node", "sigma": "1.1003E-5", "name": "om", "title": "longitude of the ascending node", "value": "169.3576498214721", "units": "deg"}, {"units": "deg", "value": "65.63529596499995", "title": "argument of perihelion", "sigma": "3.061E-5", "name": "w", "label": "peri"}, {"units": "deg", "value": "143.498518863182", "title": "mean anomaly", "sigma": "5.3679E-5", "name": "ma", "label": "M"}, {"label": "tp", "units": "TDB", "title": "time of perihelion passage", "value": "2460464.061914690813", "name": "tp", "sigma": ".00023045"}, {"units": "d", "value": "1847.529248466199", "title": "sidereal orbital period", "sigma": ".00011297", "name": "per", "label": "period"}, {"units": "deg/d", "value": ".1948548312828436", "title": "mean motion", "name": "n", "sigma": "1.1915E-8", "label": "n"}, {"label": "Q", "units": "au", "value": "5.108948021331633", "title": "aphelion distance", "sigma": "2.0826E-7", "name": "ad"}], "epoch": "2461200.5"}